{
  "type": "FeatureCollection",
  "features": [
    {
      "type": "Feature",
      "properties": {
        "norad_id": 35583,
        "name": "COSMOS 2251 DEB",
        "group": "cosmos-2251-debris",
        "lat": -5.911845824963912,
        "lon": -163.59413185594397,
        "alt_km": 1245.3059464771004,
        "timestamp": "2025-12-21T07:34:34.910617+00:00",
        "meta_object_name": "COSMOS 2251 DEB",
        "meta_object_id": "1993-036AMA",
        "meta_epoch": "2025-12-20T06:48:28.606752",
        "meta_mean_motion": 13.55347821,
        "meta_eccentricity": 0.03851724,
        "meta_inclination": 73.9159,
        "meta_ra_of_asc_node": 199.7899,
        "meta_arg_of_pericenter": 222.7536,
        "meta_mean_anomaly": 134.3018,
        "meta_ephemeris_type": 0,
        "meta_classification_type": "U",
        "meta_norad_cat_id": 35583,
        "meta_element_set_no": 999,
        "meta_rev_at_epoch": 82514,
        "meta_bstar": 0.00063035035,
        "meta_mean_motion_dot": 6.79e-06,
        "meta_mean_motion_ddot": 0,
        "tle_line1": "1 35583U 93036AMA 25354.28366443  .00000679  00000+0  63035-3 0  9991",
        "tle_line2": "2 35583  73.9159 199.7899 0385172 222.7536 134.3018 13.55347821825144"
      },
      "geometry": {
        "type": "Point",
        "coordinates": [
          -163.59413185594397,
          -5.911845824963912
        ]
      }
    },
    {
      "type": "Feature",
      "properties": {
        "norad_id": 35585,
        "name": "COSMOS 2251 DEB",
        "group": "cosmos-2251-debris",
        "lat": -16.45983136036069,
        "lon": 158.96431334053293,
        "alt_km": 827.3567996276624,
        "timestamp": "2025-12-21T07:34:34.910626+00:00",
        "meta_object_name": "COSMOS 2251 DEB",
        "meta_object_id": "1993-036AMC",
        "meta_epoch": "2025-12-20T15:30:07.253856",
        "meta_mean_motion": 13.75268029,
        "meta_eccentricity": 0.0310433,
        "meta_inclination": 73.9724,
        "meta_ra_of_asc_node": 335.2103,
        "meta_arg_of_pericenter": 245.9158,
        "meta_mean_anomaly": 238.9797,
        "meta_ephemeris_type": 0,
        "meta_classification_type": "U",
        "meta_norad_cat_id": 35585,
        "meta_element_set_no": 999,
        "meta_rev_at_epoch": 64172,
        "meta_bstar": 0.00064977,
        "meta_mean_motion_dot": 8.6e-06,
        "meta_mean_motion_ddot": 0,
        "tle_line1": "1 35585U 93036AMC 25354.64591729  .00000860  00000+0  64977-3 0  9998",
        "tle_line2": "2 35585  73.9724 335.2103 0310433 245.9158 238.9797 13.75268029641723"
      },
      "geometry": {
        "type": "Point",
        "coordinates": [
          158.96431334053293,
          -16.45983136036069
        ]
      }
    },
    {
      "type": "Feature",
      "properties": {
        "norad_id": 35586,
        "name": "COSMOS 2251 DEB",
        "group": "cosmos-2251-debris",
        "lat": 28.504464318951488,
        "lon": -62.30828975568906,
        "alt_km": 1258.9944783118663,
        "timestamp": "2025-12-21T07:34:34.910635+00:00",
        "meta_object_name": "COSMOS 2251 DEB",
        "meta_object_id": "1993-036AMD",
        "meta_epoch": "2025-12-18T14:35:36.885984",
        "meta_mean_motion": 13.5208875,
        "meta_eccentricity": 0.04044314,
        "meta_inclination": 74.0204,
        "meta_ra_of_asc_node": 293.076,
        "meta_arg_of_pericenter": 167.1463,
        "meta_mean_anomaly": 11.7227,
        "meta_ephemeris_type": 0,
        "meta_classification_type": "U",
        "meta_norad_cat_id": 35586,
        "meta_element_set_no": 999,
        "meta_rev_at_epoch": 60461,
        "meta_bstar": 0.00023975249,
        "meta_mean_motion_dot": 2.44e-06,
        "meta_mean_motion_ddot": 0,
        "tle_line1": "1 35586U 93036AMD 25352.60806581  .00000244  00000+0  23975-3 0  9997",
        "tle_line2": "2 35586  74.0204 293.0760 0404431 167.1463  11.7227 13.52088750604613"
      },
      "geometry": {
        "type": "Point",
        "coordinates": [
          -62.30828975568906,
          28.504464318951488
        ]
      }
    },
    {
      "type": "Feature",
      "properties": {
        "norad_id": 35587,
        "name": "COSMOS 2251 DEB",
        "group": "cosmos-2251-debris",
        "lat": -12.395908830189647,
        "lon": 38.109188140635474,
        "alt_km": 695.4419949519533,
        "timestamp": "2025-12-21T07:34:34.910653+00:00",
        "meta_object_name": "COSMOS 2251 DEB",
        "meta_object_id": "1993-036AME",
        "meta_epoch": "2025-12-19T21:22:17.268960",
        "meta_mean_motion": 14.71544302,
        "meta_eccentricity": 0.0102392,
        "meta_inclination": 74.0049,
        "meta_ra_of_asc_node": 44.4984,
        "meta_arg_of_pericenter": 230.5816,
        "meta_mean_anomaly": 128.6259,
        "meta_ephemeris_type": 0,
        "meta_classification_type": "U",
        "meta_norad_cat_id": 35587,
        "meta_element_set_no": 999,
        "meta_rev_at_epoch": 66451,
        "meta_bstar": 0.00018067,
        "meta_mean_motion_dot": 1.181e-05,
        "meta_mean_motion_ddot": 0,
        "tle_line1": "1 35587U 93036AME 25353.89047765  .00001181  00000+0  18067-3 0  9998",
        "tle_line2": "2 35587  74.0049  44.4984 0102392 230.5816 128.6259 14.71544302664515"
      },
      "geometry": {
        "type": "Point",
        "coordinates": [
          38.109188140635474,
          -12.395908830189647
        ]
      }
    },
    {
      "type": "Feature",
      "properties": {
        "norad_id": 35593,
        "name": "COSMOS 2251 DEB",
        "group": "cosmos-2251-debris",
        "lat": 37.59676686492956,
        "lon": 80.32308849573894,
        "alt_km": 858.1726882826015,
        "timestamp": "2025-12-21T07:34:34.910663+00:00",
        "meta_object_name": "COSMOS 2251 DEB",
        "meta_object_id": "1993-036AML",
        "meta_epoch": "2025-12-20T03:57:49.308192",
        "meta_mean_motion": 14.2562311,
        "meta_eccentricity": 0.01050867,
        "meta_inclination": 74.0862,
        "meta_ra_of_asc_node": 275.0836,
        "meta_arg_of_pericenter": 279.9354,
        "meta_mean_anomaly": 78.9945,
        "meta_ephemeris_type": 0,
        "meta_classification_type": "U",
        "meta_norad_cat_id": 35593,
        "meta_element_set_no": 999,
        "meta_rev_at_epoch": 85171,
        "meta_bstar": 0.0005338344,
        "meta_mean_motion_dot": 1.314e-05,
        "meta_mean_motion_ddot": 0,
        "tle_line1": "1 35593U 93036AML 25354.16515403  .00001314  00000+0  53383-3 0  9993",
        "tle_line2": "2 35593  74.0862 275.0836 0105086 279.9354  78.9945 14.25623110851713"
      },
      "geometry": {
        "type": "Point",
        "coordinates": [
          80.32308849573894,
          37.59676686492956
        ]
      }
    },
    {
      "type": "Feature",
      "properties": {
        "norad_id": 35594,
        "name": "COSMOS 2251 DEB",
        "group": "cosmos-2251-debris",
        "lat": -29.69249921442749,
        "lon": -81.27123593277597,
        "alt_km": 589.0160305950722,
        "timestamp": "2025-12-21T07:34:34.910672+00:00",
        "meta_object_name": "COSMOS 2251 DEB",
        "meta_object_id": "1993-036AMM",
        "meta_epoch": "2025-12-20T16:06:37.918080",
        "meta_mean_motion": 14.88150247,
        "meta_eccentricity": 0.00294073,
        "meta_inclination": 73.8062,
        "meta_ra_of_asc_node": 90.4935,
        "meta_arg_of_pericenter": 202.9208,
        "meta_mean_anomaly": 157.0661,
        "meta_ephemeris_type": 0,
        "meta_classification_type": "U",
        "meta_norad_cat_id": 35594,
        "meta_element_set_no": 999,
        "meta_rev_at_epoch": 88303,
        "meta_bstar": 0.0010059598,
        "meta_mean_motion_dot": 9.316e-05,
        "meta_mean_motion_ddot": 0,
        "tle_line1": "1 35594U 93036AMM 25354.67127220  .00009316  00000+0  10060-2 0  9990",
        "tle_line2": "2 35594  73.8062  90.4935 0029407 202.9208 157.0661 14.88150247883037"
      },
      "geometry": {
        "type": "Point",
        "coordinates": [
          -81.27123593277597,
          -29.69249921442749
        ]
      }
    },
    {
      "type": "Feature",
      "properties": {
        "norad_id": 35602,
        "name": "COSMOS 2251 DEB",
        "group": "cosmos-2251-debris",
        "lat": -22.324799500799468,
        "lon": 156.9940015769545,
        "alt_km": 484.48871159209284,
        "timestamp": "2025-12-21T07:34:34.910681+00:00",
        "meta_object_name": "COSMOS 2251 DEB",
        "meta_object_id": "1993-036AMV",
        "meta_epoch": "2025-12-19T12:02:08.754144",
        "meta_mean_motion": 15.3532305,
        "meta_eccentricity": 0.0089059,
        "meta_inclination": 73.9924,
        "meta_ra_of_asc_node": 167.6664,
        "meta_arg_of_pericenter": 231.9555,
        "meta_mean_anomaly": 160.7824,
        "meta_ephemeris_type": 0,
        "meta_classification_type": "U",
        "meta_norad_cat_id": 35602,
        "meta_element_set_no": 999,
        "meta_rev_at_epoch": 90195,
        "meta_bstar": 0.00042337,
        "meta_mean_motion_dot": 0.00016543,
        "meta_mean_motion_ddot": 0,
        "tle_line1": "1 35602U 93036AMV 25353.50149021  .00016543  00000+0  42337-3 0  9997",
        "tle_line2": "2 35602  73.9924 167.6664 0089059 231.9555 160.7824 15.35323050901958"
      },
      "geometry": {
        "type": "Point",
        "coordinates": [
          156.9940015769545,
          -22.324799500799468
        ]
      }
    }
  ]
}